*******************************************************************************
Ephemeris / WWW_USER Mon Mar 24 09:18:11 2025 Pasadena, USA      / Horizons    
*******************************************************************************
Target body name: 300163 (2006 VW139)             {source: JPL#20}
Center body name: Earth (399)                     {source: DE441}
Center-site name: Mauna Kea
*******************************************************************************
Start time      : A.D. 2018-Sep-26 04:24:00.0000 UT      
Stop  time      : A.D. 2018-Sep-26 16:02:00.0000 UT      
Step-size       : 1 minutes
*******************************************************************************
Target pole/equ : undefined
Target radii    : undefined                                                    
Center geodetic : 204.5278, 19.8260847, 4.21024   {E-lon(deg),Lat(deg),Alt(km)}
Center cylindric: 204.5278, 6006.35451, 2151.0229 {E-lon(deg),Dxy(km),Dz(km)}
Center pole/equ : ITRF93                          {East-longitude positive}
Center radii    : 6378.137, 6378.137, 6356.752 km {Equator_a, b, pole_c}       
Target primary  : Sun
Vis. interferer : MOON (R_eq= 1737.400) km        {source: DE441}
Rel. light bend : Sun                             {source: DE441}
Rel. lght bnd GM: 1.3271E+11 km^3/s^2                                          
Small-body perts: Yes                             {source: SB441-N16}
Atmos refraction: NO (AIRLESS)
RA format       : HMS
Time format     : CAL 
Calendar mode   : Mixed Julian/Gregorian
RTS-only print  : NO       
EOP file        : eop.250321.p250617                                           
EOP coverage    : DATA-BASED 1962-JAN-20 TO 2025-MAR-21. PREDICTS-> 2025-JUN-16
Units conversion: 1 au= 149597870.700 km, c= 299792.458 km/s, 1 day= 86400.0 s 
Table cut-offs 1: Elevation (-90.0deg=NO ),Airmass (>38.000=NO), Daylight (YES)
Table cut-offs 2: Solar elongation (  0.0,180.0=NO ),Local Hour Angle( 0.0=NO )
Table cut-offs 3: RA/DEC angular rate (     0.0=NO )                           
*******************************************************************************
Initial IAU76/J2000 heliocentric ecliptic osculating elements (au, days, deg.):
  EPOCH=  2457991.5 ! 2017-Aug-26.00 (TDB)         Residual RMS= .24052        
   EC= .2010729135113919   QR= 2.43581750533798    TP= 2457700.5743979034      
   OM= 83.18687361565334   W=  281.0057800900049   IN= 3.240211778004737       
  Equivalent ICRF heliocentric cartesian coordinates (au, au/d):
   X= 5.132894709524352E-01  Y= 2.513143937276953E+00  Z= 1.078150377913554E+00
  VX=-1.001562838274837E-02 VY= 3.317467852193382E-03 VZ= 2.080280624827025E-03
Asteroid physical parameters (km, seconds, rotational period in hours):        
   GM= n.a.                RAD= n.a.               ROTPER= 3240.               
   H= 16.21                G= .150                 B-V= n.a.                   
                           ALBEDO= n.a.            STYP= n.a.                  
*******************************************************************************
 Date__(UT)__HR:MN     R.A._________(ICRF)_________DEC
******************************************************
$$SOE
 2018-Sep-26 10:33  m  10 30 33.160040 +11 52 56.21229
 2018-Sep-26 10:34  m  10 30 33.209486 +11 52 55.94695
 2018-Sep-26 10:35  m  10 30 33.258929 +11 52 55.68161
 2018-Sep-26 10:36  m  10 30 33.308372 +11 52 55.41628
 2018-Sep-26 10:37  m  10 30 33.357813 +11 52 55.15096
 2018-Sep-26 10:38  m  10 30 33.407253 +11 52 54.88565
 2018-Sep-26 10:39  m  10 30 33.456691 +11 52 54.62034
 2018-Sep-26 10:40  m  10 30 33.506128 +11 52 54.35504
 2018-Sep-26 10:41  m  10 30 33.555563 +11 52 54.08974
 2018-Sep-26 10:42  m  10 30 33.604997 +11 52 53.82446
 2018-Sep-26 10:43  m  10 30 33.654430 +11 52 53.55917
 2018-Sep-26 10:44  m  10 30 33.703861 +11 52 53.29390
 2018-Sep-26 10:45  m  10 30 33.753291 +11 52 53.02863
 2018-Sep-26 10:46  m  10 30 33.802719 +11 52 52.76337
 2018-Sep-26 10:47  m  10 30 33.852145 +11 52 52.49811
 2018-Sep-26 10:48  m  10 30 33.901571 +11 52 52.23287
 2018-Sep-26 10:49  m  10 30 33.950994 +11 52 51.96762
 2018-Sep-26 10:50  m  10 30 34.000416 +11 52 51.70239
 2018-Sep-26 10:51  m  10 30 34.049837 +11 52 51.43716
 2018-Sep-26 10:52  m  10 30 34.099256 +11 52 51.17193
 2018-Sep-26 10:53  m  10 30 34.148674 +11 52 50.90672
 2018-Sep-26 10:54  m  10 30 34.198090 +11 52 50.64151
 2018-Sep-26 10:55  m  10 30 34.247504 +11 52 50.37630
 2018-Sep-26 10:56  m  10 30 34.296917 +11 52 50.11111
 2018-Sep-26 10:57  m  10 30 34.346328 +11 52 49.84592
 2018-Sep-26 10:58  m  10 30 34.395738 +11 52 49.58073
 2018-Sep-26 10:59  m  10 30 34.445146 +11 52 49.31555
 2018-Sep-26 11:00  m  10 30 34.494552 +11 52 49.05038
 2018-Sep-26 11:01  m  10 30 34.543957 +11 52 48.78521
 2018-Sep-26 11:02  m  10 30 34.593360 +11 52 48.52005
 2018-Sep-26 11:03  m  10 30 34.642762 +11 52 48.25490
 2018-Sep-26 11:04  m  10 30 34.692162 +11 52 47.98975
 2018-Sep-26 11:05  m  10 30 34.741560 +11 52 47.72461
 2018-Sep-26 11:06  m  10 30 34.790957 +11 52 47.45948
 2018-Sep-26 11:07  m  10 30 34.840352 +11 52 47.19435
 2018-Sep-26 11:08  m  10 30 34.889745 +11 52 46.92923
 2018-Sep-26 11:09  m  10 30 34.939137 +11 52 46.66411
 2018-Sep-26 11:10  m  10 30 34.988527 +11 52 46.39900
 2018-Sep-26 11:11  m  10 30 35.037915 +11 52 46.13389
 2018-Sep-26 11:12  m  10 30 35.087302 +11 52 45.86880
 2018-Sep-26 11:13  m  10 30 35.136687 +11 52 45.60370
 2018-Sep-26 11:14  m  10 30 35.186070 +11 52 45.33862
 2018-Sep-26 11:15  m  10 30 35.235451 +11 52 45.07354
 2018-Sep-26 11:16  m  10 30 35.284831 +11 52 44.80846
 2018-Sep-26 11:17  m  10 30 35.334209 +11 52 44.54339
 2018-Sep-26 11:18  m  10 30 35.383585 +11 52 44.27833
 2018-Sep-26 11:19  m  10 30 35.432959 +11 52 44.01328
 2018-Sep-26 11:20  m  10 30 35.482332 +11 52 43.74822
 2018-Sep-26 11:21  m  10 30 35.531703 +11 52 43.48318
 2018-Sep-26 11:22  m  10 30 35.581072 +11 52 43.21814
 2018-Sep-26 11:23  m  10 30 35.630439 +11 52 42.95311
 2018-Sep-26 11:24  m  10 30 35.679805 +11 52 42.68808
 2018-Sep-26 11:25  m  10 30 35.729168 +11 52 42.42306
 2018-Sep-26 11:26  m  10 30 35.778530 +11 52 42.15804
 2018-Sep-26 11:27  m  10 30 35.827890 +11 52 41.89303
 2018-Sep-26 11:28  m  10 30 35.877248 +11 52 41.62803
 2018-Sep-26 11:29  m  10 30 35.926604 +11 52 41.36303
 2018-Sep-26 11:30  m  10 30 35.975959 +11 52 41.09803
 2018-Sep-26 11:31  m  10 30 36.025311 +11 52 40.83305
 2018-Sep-26 11:32  m  10 30 36.074662 +11 52 40.56806
 2018-Sep-26 11:33  m  10 30 36.124011 +11 52 40.30309
 2018-Sep-26 11:34  m  10 30 36.173358 +11 52 40.03812
 2018-Sep-26 11:35  m  10 30 36.222703 +11 52 39.77315
 2018-Sep-26 11:36  m  10 30 36.272046 +11 52 39.50819
 2018-Sep-26 11:37  m  10 30 36.321387 +11 52 39.24324
 2018-Sep-26 11:38  m  10 30 36.370727 +11 52 38.97829
 2018-Sep-26 11:39  m  10 30 36.420064 +11 52 38.71334
 2018-Sep-26 11:40  m  10 30 36.469400 +11 52 38.44841
 2018-Sep-26 11:41  m  10 30 36.518733 +11 52 38.18347
 2018-Sep-26 11:42  m  10 30 36.568065 +11 52 37.91855
 2018-Sep-26 11:43  m  10 30 36.617394 +11 52 37.65362
 2018-Sep-26 11:44  m  10 30 36.666722 +11 52 37.38871
 2018-Sep-26 11:45  m  10 30 36.716048 +11 52 37.12379
 2018-Sep-26 11:46  m  10 30 36.765372 +11 52 36.85889
 2018-Sep-26 11:47  m  10 30 36.814693 +11 52 36.59399
 2018-Sep-26 11:48  m  10 30 36.864013 +11 52 36.32909
 2018-Sep-26 11:49  m  10 30 36.913331 +11 52 36.06420
 2018-Sep-26 11:50  m  10 30 36.962647 +11 52 35.79932
 2018-Sep-26 11:51  m  10 30 37.011961 +11 52 35.53444
 2018-Sep-26 11:52  m  10 30 37.061272 +11 52 35.26956
 2018-Sep-26 11:53  m  10 30 37.110582 +11 52 35.00469
 2018-Sep-26 11:54  m  10 30 37.159890 +11 52 34.73983
 2018-Sep-26 11:55  m  10 30 37.209196 +11 52 34.47497
 2018-Sep-26 11:56  m  10 30 37.258499 +11 52 34.21011
 2018-Sep-26 11:57  m  10 30 37.307801 +11 52 33.94526
 2018-Sep-26 11:58  m  10 30 37.357100 +11 52 33.68042
 2018-Sep-26 11:59  m  10 30 37.406398 +11 52 33.41558
 2018-Sep-26 12:00  m  10 30 37.455693 +11 52 33.15074
 2018-Sep-26 12:01  m  10 30 37.504987 +11 52 32.88591
 2018-Sep-26 12:02  m  10 30 37.554278 +11 52 32.62108
 2018-Sep-26 12:03  m  10 30 37.603567 +11 52 32.35626
 2018-Sep-26 12:04  m  10 30 37.652854 +11 52 32.09145
 2018-Sep-26 12:05  m  10 30 37.702139 +11 52 31.82664
 2018-Sep-26 12:06  m  10 30 37.751422 +11 52 31.56183
 2018-Sep-26 12:07  m  10 30 37.800702 +11 52 31.29703
 2018-Sep-26 12:08  m  10 30 37.849981 +11 52 31.03223
 2018-Sep-26 12:09  m  10 30 37.899257 +11 52 30.76744
 2018-Sep-26 12:10  m  10 30 37.948532 +11 52 30.50265
 2018-Sep-26 12:11  m  10 30 37.997804 +11 52 30.23787
 2018-Sep-26 12:12  m  10 30 38.047074 +11 52 29.97309
 2018-Sep-26 12:13  m  10 30 38.096342 +11 52 29.70832
 2018-Sep-26 12:14  m  10 30 38.145608 +11 52 29.44355
 2018-Sep-26 12:15  m  10 30 38.194871 +11 52 29.17879
 2018-Sep-26 12:16  m  10 30 38.244132 +11 52 28.91403
 2018-Sep-26 12:17  m  10 30 38.293392 +11 52 28.64927
 2018-Sep-26 12:18  m  10 30 38.342649 +11 52 28.38452
 2018-Sep-26 12:19  m  10 30 38.391903 +11 52 28.11977
 2018-Sep-26 12:20  m  10 30 38.441156 +11 52 27.85503
 2018-Sep-26 12:21  m  10 30 38.490406 +11 52 27.59029
 2018-Sep-26 12:22  m  10 30 38.539655 +11 52 27.32556
 2018-Sep-26 12:23  m  10 30 38.588901 +11 52 27.06083
 2018-Sep-26 12:24  m  10 30 38.638144 +11 52 26.79610
 2018-Sep-26 12:25  m  10 30 38.687386 +11 52 26.53138
 2018-Sep-26 12:26  m  10 30 38.736625 +11 52 26.26667
 2018-Sep-26 12:27  m  10 30 38.785862 +11 52 26.00195
 2018-Sep-26 12:28  m  10 30 38.835097 +11 52 25.73725
 2018-Sep-26 12:29  m  10 30 38.884330 +11 52 25.47254
 2018-Sep-26 12:30  m  10 30 38.933560 +11 52 25.20784
 2018-Sep-26 12:31  m  10 30 38.982788 +11 52 24.94315
 2018-Sep-26 12:32  m  10 30 39.032014 +11 52 24.67845
 2018-Sep-26 12:33  m  10 30 39.081237 +11 52 24.41377
 2018-Sep-26 12:34  m  10 30 39.130458 +11 52 24.14908
 2018-Sep-26 12:35  m  10 30 39.179677 +11 52 23.88440
